[{"OBJECT_NAME":"PROBA-1","OBJECT_ID":"2001-049B","EPOCH":"2026-03-15T06:26:15.980064","MEAN_MOTION":15.07067427,"ECCENTRICITY":0.00572533,"INCLINATION":97.9639,"RA_OF_ASC_NODE":79.5367,"ARG_OF_PERICENTER":80.6798,"MEAN_ANOMALY":280.0897,"EPHEMERIS_TYPE":0,"CLASSIFICATION_TYPE":"U","NORAD_CAT_ID":26958,"ELEMENT_SET_NO":999,"REV_AT_EPOCH":32947,"BSTAR":0.00018827241,"MEAN_MOTION_DOT":2.86e-5,"MEAN_MOTION_DDOT":0},{"OBJECT_NAME":"CUTE-1 (CO-55)","OBJECT_ID":"2003-031E","EPOCH":"2026-03-15T06:05:59.957952","MEAN_MOTION":14.24271187,"ECCENTRICITY":0.00107666,"INCLINATION":98.6777,"RA_OF_ASC_NODE":83.9839,"ARG_OF_PERICENTER":98.1301,"MEAN_ANOMALY":262.1099,"EPHEMERIS_TYPE":0,"CLASSIFICATION_TYPE":"U","NORAD_CAT_ID":27844,"ELEMENT_SET_NO":999,"REV_AT_EPOCH":17830,"BSTAR":0.00017886427,"MEAN_MOTION_DOT":3.69e-6,"MEAN_MOTION_DDOT":0},{"OBJECT_NAME":"CUBESAT XI-IV (CO-57)","OBJECT_ID":"2003-031J","EPOCH":"2026-03-14T13:31:00.670944","MEAN_MOTION":14.2356524,"ECCENTRICITY":0.00105214,"INCLINATION":98.6807,"RA_OF_ASC_NODE":83.0901,"ARG_OF_PERICENTER":116.0304,"MEAN_ANOMALY":244.1959,"EPHEMERIS_TYPE":0,"CLASSIFICATION_TYPE":"U","NORAD_CAT_ID":27848,"ELEMENT_SET_NO":999,"REV_AT_EPOCH":17791,"BSTAR":0.00017224166,"MEAN_MOTION_DOT":3.49e-6,"MEAN_MOTION_DDOT":0},{"OBJECT_NAME":"APRIZESAT 4","OBJECT_ID":"2009-041D","EPOCH":"2026-03-15T04:26:12.256512","MEAN_MOTION":14.83720536,"ECCENTRICITY":0.00420735,"INCLINATION":98.1476,"RA_OF_ASC_NODE":147.6204,"ARG_OF_PERICENTER":266.3102,"MEAN_ANOMALY":93.3299,"EPHEMERIS_TYPE":0,"CLASSIFICATION_TYPE":"U","NORAD_CAT_ID":35684,"ELEMENT_SET_NO":999,"REV_AT_EPOCH":89742,"BSTAR":0.00011345475,"MEAN_MOTION_DOT":8.93e-6,"MEAN_MOTION_DDOT":0},{"OBJECT_NAME":"APRIZESAT 3","OBJECT_ID":"2009-041F","EPOCH":"2026-03-14T22:17:10.692672","MEAN_MOTION":14.95920075,"ECCENTRICITY":0.00623162,"INCLINATION":98.1899,"RA_OF_ASC_NODE":222.73,"ARG_OF_PERICENTER":19.2064,"MEAN_ANOMALY":341.1484,"EPHEMERIS_TYPE":0,"CLASSIFICATION_TYPE":"U","NORAD_CAT_ID":35686,"ELEMENT_SET_NO":999,"REV_AT_EPOCH":90228,"BSTAR":0.00016338335,"MEAN_MOTION_DOT":1.833e-5,"MEAN_MOTION_DDOT":0},{"OBJECT_NAME":"PROBA-2","OBJECT_ID":"2009-059B","EPOCH":"2026-03-15T02:02:15.747072","MEAN_MOTION":14.54795627,"ECCENTRICITY":0.001263,"INCLINATION":98.2435,"RA_OF_ASC_NODE":258.7429,"ARG_OF_PERICENTER":206.6506,"MEAN_ANOMALY":153.4044,"EPHEMERIS_TYPE":0,"CLASSIFICATION_TYPE":"U","NORAD_CAT_ID":36037,"ELEMENT_SET_NO":999,"REV_AT_EPOCH":86784,"BSTAR":8.6596904e-5,"MEAN_MOTION_DOT":3.26e-6,"MEAN_MOTION_DDOT":0},{"OBJECT_NAME":"APRIZESAT 5","OBJECT_ID":"2011-044E","EPOCH":"2026-03-14T16:30:54.864864","MEAN_MOTION":14.80875754,"ECCENTRICITY":0.0051369,"INCLINATION":98.2404,"RA_OF_ASC_NODE":4.0947,"ARG_OF_PERICENTER":308.1061,"MEAN_ANOMALY":51.5524,"EPHEMERIS_TYPE":0,"CLASSIFICATION_TYPE":"U","NORAD_CAT_ID":37792,"ELEMENT_SET_NO":999,"REV_AT_EPOCH":78480,"BSTAR":0.00021098872,"MEAN_MOTION_DOT":1.607e-5,"MEAN_MOTION_DDOT":0},{"OBJECT_NAME":"APRIZESAT 6","OBJECT_ID":"2011-044F","EPOCH":"2026-03-15T06:03:14.361984","MEAN_MOTION":14.76765607,"ECCENTRICITY":0.00439487,"INCLINATION":98.2415,"RA_OF_ASC_NODE":342.8204,"ARG_OF_PERICENTER":28.0645,"MEAN_ANOMALY":89.0263,"EPHEMERIS_TYPE":0,"CLASSIFICATION_TYPE":"U","NORAD_CAT_ID":37793,"ELEMENT_SET_NO":999,"REV_AT_EPOCH":78328,"BSTAR":0.00014735389,"MEAN_MOTION_DOT":9.93e-6,"MEAN_MOTION_DDOT":0},{"OBJECT_NAME":"PROBA-V","OBJECT_ID":"2013-021A","EPOCH":"2026-03-15T05:13:59.771424","MEAN_MOTION":14.23575266,"ECCENTRICITY":0.00051681,"INCLINATION":98.3513,"RA_OF_ASC_NODE":57.5014,"ARG_OF_PERICENTER":57.0586,"MEAN_ANOMALY":303.109,"EPHEMERIS_TYPE":0,"CLASSIFICATION_TYPE":"U","NORAD_CAT_ID":39159,"ELEMENT_SET_NO":999,"REV_AT_EPOCH":66774,"BSTAR":5.8044114e-5,"MEAN_MOTION_DOT":9.1e-7,"MEAN_MOTION_DDOT":0},{"OBJECT_NAME":"APRIZESAT 7","OBJECT_ID":"2013-066A","EPOCH":"2026-03-14T19:47:31.007616","MEAN_MOTION":14.91302923,"ECCENTRICITY":0.00364056,"INCLINATION":97.7603,"RA_OF_ASC_NODE":28.4756,"ARG_OF_PERICENTER":161.8614,"MEAN_ANOMALY":198.3912,"EPHEMERIS_TYPE":0,"CLASSIFICATION_TYPE":"U","NORAD_CAT_ID":39416,"ELEMENT_SET_NO":999,"REV_AT_EPOCH":66716,"BSTAR":0.00019787119,"MEAN_MOTION_DOT":1.938e-5,"MEAN_MOTION_DDOT":0},{"OBJECT_NAME":"APRIZESAT 8","OBJECT_ID":"2013-066K","EPOCH":"2026-03-15T02:29:08.030688","MEAN_MOTION":14.8744157,"ECCENTRICITY":0.00447905,"INCLINATION":97.8125,"RA_OF_ASC_NODE":22.9534,"ARG_OF_PERICENTER":234.5651,"MEAN_ANOMALY":125.1379,"EPHEMERIS_TYPE":0,"CLASSIFICATION_TYPE":"U","NORAD_CAT_ID":39425,"ELEMENT_SET_NO":999,"REV_AT_EPOCH":66568,"BSTAR":0.00015451907,"MEAN_MOTION_DOT":1.367e-5,"MEAN_MOTION_DDOT":0},{"OBJECT_NAME":"BUGSAT-1 (TITA)","OBJECT_ID":"2014-033E","EPOCH":"2026-03-15T06:06:00.546336","MEAN_MOTION":15.14583059,"ECCENTRICITY":0.00295349,"INCLINATION":98.0425,"RA_OF_ASC_NODE":161.3943,"ARG_OF_PERICENTER":140.1254,"MEAN_ANOMALY":220.2154,"EPHEMERIS_TYPE":0,"CLASSIFICATION_TYPE":"U","NORAD_CAT_ID":40014,"ELEMENT_SET_NO":999,"REV_AT_EPOCH":64161,"BSTAR":0.00048613376,"MEAN_MOTION_DOT":8.998e-5,"MEAN_MOTION_DDOT":0},{"OBJECT_NAME":"SAUDISAT 4","OBJECT_ID":"2014-033G","EPOCH":"2026-03-15T05:51:46.118592","MEAN_MOTION":14.79401026,"ECCENTRICITY":0.00453264,"INCLINATION":97.7423,"RA_OF_ASC_NODE":223.7097,"ARG_OF_PERICENTER":20.8803,"MEAN_ANOMALY":339.4247,"EPHEMERIS_TYPE":0,"CLASSIFICATION_TYPE":"U","NORAD_CAT_ID":40016,"ELEMENT_SET_NO":999,"REV_AT_EPOCH":63218,"BSTAR":0.00011166986,"MEAN_MOTION_DOT":7.95e-6,"MEAN_MOTION_DDOT":0},{"OBJECT_NAME":"APRIZESAT 9","OBJECT_ID":"2014-033J","EPOCH":"2026-03-15T06:24:01.009440","MEAN_MOTION":14.74087585,"ECCENTRICITY":0.00671797,"INCLINATION":97.889,"RA_OF_ASC_NODE":209.8496,"ARG_OF_PERICENTER":141.4441,"MEAN_ANOMALY":219.1594,"EPHEMERIS_TYPE":0,"CLASSIFICATION_TYPE":"U","NORAD_CAT_ID":40018,"ELEMENT_SET_NO":999,"REV_AT_EPOCH":62972,"BSTAR":0.00015494123,"MEAN_MOTION_DOT":1.006e-5,"MEAN_MOTION_DDOT":0},{"OBJECT_NAME":"APRIZESAT 10","OBJECT_ID":"2014-033K","EPOCH":"2026-03-15T05:53:55.441248","MEAN_MOTION":14.7076354,"ECCENTRICITY":0.00782799,"INCLINATION":97.9487,"RA_OF_ASC_NODE":203.3893,"ARG_OF_PERICENTER":212.962,"MEAN_ANOMALY":146.6694,"EPHEMERIS_TYPE":0,"CLASSIFICATION_TYPE":"U","NORAD_CAT_ID":40019,"ELEMENT_SET_NO":999,"REV_AT_EPOCH":62844,"BSTAR":0.00014461682,"MEAN_MOTION_DOT":8.72e-6,"MEAN_MOTION_DDOT":0},{"OBJECT_NAME":"TECHDEMOSAT-1 (TDS-1)","OBJECT_ID":"2014-037H","EPOCH":"2026-03-15T05:13:46.261056","MEAN_MOTION":15.11705389,"ECCENTRICITY":0.00051904,"INCLINATION":98.3779,"RA_OF_ASC_NODE":57.2594,"ARG_OF_PERICENTER":211.6436,"MEAN_ANOMALY":148.4481,"EPHEMERIS_TYPE":0,"CLASSIFICATION_TYPE":"U","NORAD_CAT_ID":40076,"ELEMENT_SET_NO":999,"REV_AT_EPOCH":63402,"BSTAR":0.00067497,"MEAN_MOTION_DOT":0.00011433,"MEAN_MOTION_DDOT":0}]
