PROBA-1                 
1 26958U 01049B   26074.26824051  .00002860  00000+0  18827-3 0  9995
2 26958  97.9639  79.5367 0057253  80.6798 280.0897 15.07067427329470
CUTE-1 (CO-55)          
1 27844U 03031E   26074.25416618  .00000369  00000+0  17886-3 0  9994
2 27844  98.6777  83.9839 0010766  98.1301 262.1099 14.24271187178308
CUBESAT XI-IV (CO-57)   
1 27848U 03031J   26073.56320221  .00000349  00000+0  17224-3 0  9999
2 27848  98.6807  83.0901 0010521 116.0304 244.1959 14.23565240177915
APRIZESAT 4             
1 35684U 09041D   26074.18486408  .00000893  00000+0  11345-3 0  9994
2 35684  98.1476 147.6204 0042073 266.3102  93.3299 14.83720536897427
APRIZESAT 3             
1 35686U 09041F   26073.92859598  .00001833  00000+0  16338-3 0  9993
2 35686  98.1899 222.7300 0062316  19.2064 341.1484 14.95920075902288
PROBA-2                 
1 36037U 09059B   26074.08490448  .00000326  00000+0  86597-4 0  9997
2 36037  98.2435 258.7429 0012630 206.6506 153.4044 14.54795627867840
APRIZESAT 5             
1 37792U 11044E   26073.68813501  .00001607  00000+0  21099-3 0  9995
2 37792  98.2404   4.0947 0051369 308.1061  51.5524 14.80875754784802
APRIZESAT 6             
1 37793U 11044F   26074.25224956  .00000993  00000+0  14735-3 0  9996
2 37793  98.2415 342.8204 0043948  28.0645  89.0263 14.76765607783281
PROBA-V                 
1 39159U 13021A   26074.21805291  .00000091  00000+0  58044-4 0  9995
2 39159  98.3513  57.5014 0005168  57.0586 303.1090 14.23575266667748
APRIZESAT 7             
1 39416U 13066A   26073.82466444  .00001938  00000+0  19787-3 0  9990
2 39416  97.7603  28.4756 0036405 161.8614 198.3912 14.91302923667167
APRIZESAT 8             
1 39425U 13066K   26074.10356517  .00001367  00000+0  15452-3 0  9992
2 39425  97.8125  22.9534 0044790 234.5651 125.1379 14.87441570665682
BUGSAT-1 (TITA)         
1 40014U 14033E   26074.25417299  .00008998  00000+0  48613-3 0  9996
2 40014  98.0425 161.3943 0029534 140.1254 220.2154 15.14583059641611
SAUDISAT 4              
1 40016U 14033G   26074.24428378  .00000795  00000+0  11167-3 0  9998
2 40016  97.7423 223.7097 0045326  20.8803 339.4247 14.79401026632182
APRIZESAT 9             
1 40018U 14033J   26074.26667835  .00001006  00000+0  15494-3 0  9998
2 40018  97.8890 209.8496 0067179 141.4441 219.1594 14.74087585629729
APRIZESAT 10            
1 40019U 14033K   26074.24578057  .00000872  00000+0  14462-3 0  9998
2 40019  97.9487 203.3893 0078279 212.9620 146.6694 14.70763540628440
TECHDEMOSAT-1 (TDS-1)   
1 40076U 14037H   26074.21789654  .00011433  00000+0  67497-3 0  9990
2 40076  98.3779  57.2594 0005190 211.6436 148.4481 15.11705389634027
